{"type":"Feature","properties":{"MUN":"MANTOLOKING BORO","COUNTY":"OCEAN","MUN_LABEL":"Mantoloking Borough","MUN_TYPE":"Borough","NAME":"Mantoloking Borough","GNIS_NAME":"Borough of Mantoloking"},"geometry":{"type":"Polygon","coordinates":[[[-74.051954,40.0265032],[-74.0577974,40.0277148],[-74.0565383,40.0292781],[-74.0551864,40.0346759],[-74.0531763,40.0428075],[-74.0518716,40.0484882],[-74.0516662,40.0493438],[-74.0506101,40.0496759],[-74.0508664,40.0515691],[-74.0510479,40.0519196],[-74.0517062,40.0531903],[-74.0509081,40.0536034],[-74.0525096,40.056622],[-74.052314,40.0574732],[-74.0505749,40.0581321],[-74.0504531,40.0588346],[-74.0445151,40.0575576],[-74.0445175,40.0575474],[-74.0446076,40.057055],[-74.0446521,40.056681],[-74.0447125,40.0563238],[-74.0447868,40.0559941],[-74.0448873,40.0557634],[-74.0449312,40.0556371],[-74.0449837,40.0553623],[-74.0450218,40.0551093],[-74.0450459,40.054818],[-74.0451247,40.0545819],[-74.0452294,40.0540763],[-74.0452965,40.053763],[-74.045363,40.0535268],[-74.0454131,40.0533124],[-74.0454722,40.0530981],[-74.0454955,40.0529057],[-74.0456126,40.0525927],[-74.0456792,40.0523453],[-74.0457159,40.0520266],[-74.045813,40.0515649],[-74.0459434,40.0511583],[-74.0460456,40.0509332],[-74.0460759,40.0507354],[-74.0460855,40.0504769],[-74.0461602,40.0501142],[-74.0462317,40.049911],[-74.0463126,40.0496526],[-74.0463504,40.0494108],[-74.0464026,40.0491801],[-74.0464473,40.0489712],[-74.0465264,40.0487241],[-74.046585,40.0485427],[-74.0466153,40.0483559],[-74.0466166,40.0483532],[-74.0468183,40.047463],[-74.0470406,40.0465815],[-74.0470499,40.0465041],[-74.0471029,40.0462017],[-74.0471629,40.0460321],[-74.0472741,40.0452242],[-74.0474039,40.0448111],[-74.0475002,40.0445728],[-74.0475234,40.0443167],[-74.0475546,40.0440308],[-74.0477173,40.0431923],[-74.0480545,40.0419469],[-74.048315,40.0409713],[-74.0483876,40.0407303],[-74.0484423,40.0403743],[-74.0485416,40.0400593],[-74.0485505,40.0399205],[-74.0486445,40.0396091],[-74.0486541,40.0394215],[-74.048693,40.0391919],[-74.0487691,40.0389911],[-74.0488377,40.0387903],[-74.0489447,40.038423],[-74.0489693,40.0380899],[-74.048986,40.0378372],[-74.0490701,40.0375388],[-74.0491918,40.037229],[-74.049294,40.0370283],[-74.0493326,40.0368446],[-74.0493721,40.0365173],[-74.0493887,40.0362589],[-74.0494268,40.0361499],[-74.0495549,40.036001],[-74.0496457,40.035829],[-74.0496919,40.0356166],[-74.0498331,40.035224],[-74.0498437,40.0351403],[-74.049862,40.0350879],[-74.0498466,40.0348244],[-74.0498705,40.0346062],[-74.0499696,40.0343021],[-74.0502302,40.0336788],[-74.0503427,40.0332557],[-74.0503454,40.0328501],[-74.0503542,40.0326491],[-74.0503923,40.0325343],[-74.0504754,40.032391],[-74.0506177,40.0321466],[-74.0506757,40.0317719],[-74.0506845,40.0317353],[-74.0506757,40.0314783],[-74.0507143,40.0313004],[-74.050873,40.031031],[-74.0510022,40.030704],[-74.0511104,40.0301587],[-74.0511118,40.0299404],[-74.0511809,40.0296649],[-74.0512652,40.0293378],[-74.0514633,40.0287583],[-74.0515928,40.0283796],[-74.0516538,40.0282795],[-74.0517031,40.0280906],[-74.0517845,40.0277995],[-74.0518275,40.0275632],[-74.0518654,40.0273323],[-74.0519055,40.0271375],[-74.0518912,40.026755],[-74.051954,40.0265032]]]}}
