{"type":"FeatureCollection","name":"mantoloking_road_centerlines","metadata":{"source":"NJOGIS NG911 Road Centerlines (Tran_road)","url":"https://services2.arcgis.com/XVOqAjTOJ5P6ngMu/arcgis/rest/services/Tran_road/FeatureServer/0","query_url":"https://services2.arcgis.com/XVOqAjTOJ5P6ngMu/arcgis/rest/services/Tran_road/FeatureServer/0/query","retrieved_at_utc":"2026-09-04T20:05:37.732556+00:00","source_last_edit_date":1785341586960,"out_sr":4326,"query_envelope_wgs84":[-74.0577974,40.0265032,-74.0445151,40.0588346],"spatial_relationship":"esriSpatialRelIntersects","boundary_file":"mantoloking_boundary.geojson","boundary_sha256":"c24ab271fa5047d3551b1d06938c7813e0424a0095c544b93125e4cb709a8310","fields":["OBJECTID","PRIMENAME","ELEVTYP_F","ELEVTYP_T"],"feature_count":80,"complete_objectid_inventory_verified":true,"municipal_clipping":"Envelope selection only; clip against the actual municipal boundary in the application."},"features":[{"type":"Feature","id":4268,"properties":{"OBJECTID":4268,"PRIMENAME":"Lagoon Lane South","ELEVTYP_F":0,"ELEVTYP_T":0},"geometry":{"type":"LineString","coordinates":[[-74.0496094975172,40.0564195586738],[-74.0496394869383,40.0563792096573],[-74.0496897743844,40.056332734628],[-74.0497904200092,40.0562343481729],[-74.0498660569289,40.0561413289945],[-74.0499200596927,40.0560729327329],[-74.04997772632,40.0559908240604],[-74.0500318374033,40.055911447773],[-74.0500788584677,40.0558183164094],[-74.0501224503797,40.0557086997699],[-74.050158824786,40.0556100643043],[-74.0501880179647,40.0555113730241],[-74.0502100482874,40.055420889898],[-74.050232331027,40.055292001138],[-74.0502401976681,40.0551822457536],[-74.0502447262402,40.0550368161226],[-74.0502348388344,40.0549105198713],[-74.0502037692657,40.0547457347735],[-74.0501724347247,40.0546321487441],[-74.0501469390637,40.0545543016066],[-74.0501161914702,40.0544764340696],[-74.0500494143524,40.0543252648044],[-74.0499695508111,40.0541976807547],[-74.049910655194,40.0541138844203],[-74.0498490735527,40.0540311206261],[-74.0497734003523,40.0539399561832],[-74.0496207976464,40.0537911696201],[-74.0495677709939,40.0537168676494],[-74.0495290707781,40.0536206578608],[-74.0495011962646,40.0535135367755],[-74.0494948466488,40.053392744835],[-74.0495026417414,40.0532939984076],[-74.0495214430969,40.0531513686786],[-74.0495619868969,40.0529621538556]]}},{"type":"Feature","id":4957,"properties":{"OBJECTID":4957,"PRIMENAME":"Princeton Avenue","ELEVTYP_F":0,"ELEVTYP_T":0},"geometry":{"type":"LineString","coordinates":[[-74.051003954032,40.0339883732644],[-74.0516851992541,40.0340989850777]]}},{"type":"Feature","id":11237,"properties":{"OBJECTID":11237,"PRIMENAME":"Carrigan Place","ELEVTYP_F":0,"ELEVTYP_T":0},"geometry":{"type":"LineString","coordinates":[[-74.0460974952938,40.0568446938992],[-74.0469389388104,40.0569346298499]]}},{"type":"Feature","id":11589,"properties":{"OBJECTID":11589,"PRIMENAME":"Chafey Place","ELEVTYP_F":0,"ELEVTYP_T":0},"geometry":{"type":"LineString","coordinates":[[-74.0470594817174,40.0562813558772],[-74.0462589596174,40.0561958918053]]}},{"type":"Feature","id":16757,"properties":{"OBJECTID":16757,"PRIMENAME":"Barnegat Lane","ELEVTYP_F":0,"ELEVTYP_T":0},"geometry":{"type":"LineString","coordinates":[[-74.0509830279848,40.0398692172404],[-74.0509219125946,40.0401091977421],[-74.0507846518575,40.0406148234115],[-74.0504303023834,40.0418860492615],[-74.0502817691452,40.0424173435779],[-74.0502398752954,40.04256719684],[-74.0498473033819,40.0439713655842],[-74.0496644369364,40.0446198171546],[-74.0495366429242,40.0451325968354],[-74.0494771755577,40.0453712010777],[-74.0494278759483,40.0456104464851],[-74.0493388022098,40.0460426927833],[-74.0491566838044,40.0471401180356],[-74.0490198112245,40.0481519265386],[-74.048907916996,40.0489474960827],[-74.0487074584197,40.0503727268452],[-74.0486582717867,40.0507296203408]]}},{"type":"Feature","id":37658,"properties":{"OBJECTID":37658,"PRIMENAME":"Downer Avenue","ELEVTYP_F":0,"ELEVTYP_T":0},"geometry":{"type":"LineString","coordinates":[[-74.0533073200358,40.0373074950113],[-74.0523753044494,40.0371487591401]]}},{"type":"Feature","id":54661,"properties":{"OBJECTID":54661,"PRIMENAME":"Channel Lane","ELEVTYP_F":0,"ELEVTYP_T":0},"geometry":{"type":"LineString","coordinates":[[-74.0516639818833,40.0569963042362],[-74.0515180460024,40.0569243889511],[-74.0514076196507,40.0568800633033],[-74.0513185037651,40.0568495196731],[-74.0511189262521,40.0567856312062],[-74.0510226826651,40.0567578050559],[-74.0509406752959,40.0567382699733],[-74.0508622056493,40.0567242391926],[-74.0507658539179,40.0567129113682],[-74.0506516396578,40.0567014871664],[-74.0505337807462,40.0567010300048],[-74.0504123504617,40.0567005588647],[-74.0502909370537,40.05669734234],[-74.0501981401342,40.0566887461435],[-74.0501267977412,40.0566774878578],[-74.0500662440555,40.0566552901343],[-74.0499629098156,40.0566192545414],[-74.0498809943708,40.0565804747847],[-74.0498098689231,40.0565362732716],[-74.0496384069932,40.056429307604],[-74.0496094975172,40.0564195586738]]}},{"type":"Feature","id":55398,"properties":{"OBJECTID":55398,"PRIMENAME":"Bergen Avenue","ELEVTYP_F":0,"ELEVTYP_T":0},"geometry":{"type":"LineString","coordinates":[[-74.0496094975172,40.0564195586738],[-74.0495785552908,40.0564091434246],[-74.0494893312043,40.0564005884721],[-74.0493573104569,40.0563808577857],[-74.0490754767326,40.0563358360703],[-74.0484297495805,40.0562290528847],[-74.0479140231968,40.0561400974339]]}},{"type":"Feature","id":56467,"properties":{"OBJECTID":56467,"PRIMENAME":"Clayton Avenue","ELEVTYP_F":0,"ELEVTYP_T":0},"geometry":{"type":"LineString","coordinates":[[-74.0476909697557,40.0584857371708],[-74.0476947497367,40.0585696256536],[-74.0476916766432,40.0586940313164],[-74.0476749421969,40.0588797426626],[-74.0476357810411,40.0594369188638],[-74.0475355127943,40.0607356433579]]}},{"type":"Feature","id":57312,"properties":{"OBJECTID":57312,"PRIMENAME":"East Avenue","ELEVTYP_F":0,"ELEVTYP_T":0},"geometry":{"type":"LineString","coordinates":[[-74.0452455298408,40.0602943155918],[-74.045286600275,40.0601249532254],[-74.0457565259583,40.0582000439373],[-74.0457781303602,40.0581164692772]]}},{"type":"Feature","id":64385,"properties":{"OBJECTID":64385,"PRIMENAME":"East Avenue","ELEVTYP_F":0,"ELEVTYP_T":0},"geometry":{"type":"LineString","coordinates":[[-74.0464098811248,40.0555418042792],[-74.0465796648457,40.0547902214264],[-74.0467641325775,40.0539140022943]]}},{"type":"Feature","id":66595,"properties":{"OBJECTID":66595,"PRIMENAME":"Carpenter Lane","ELEVTYP_F":0,"ELEVTYP_T":0},"geometry":{"type":"LineString","coordinates":[[-74.0520536041619,40.0327713367157],[-74.0529269276878,40.0329119761708]]}},{"type":"Feature","id":67380,"properties":{"OBJECTID":67380,"PRIMENAME":"Lagoon Lane North","ELEVTYP_F":0,"ELEVTYP_T":0},"geometry":{"type":"LineString","coordinates":[[-74.0491880545688,40.0579745310181],[-74.0493093409177,40.0571600699582],[-74.0493391508493,40.0569735580156],[-74.0493502310247,40.0569132319357],[-74.0493721001794,40.0568474562714],[-74.0493975418427,40.0567816944963],[-74.0494266102455,40.0567077108507],[-74.0494627511735,40.0566392462458],[-74.0495601865365,40.056485941055],[-74.0496094975172,40.0564195586738]]}},{"type":"Feature","id":72122,"properties":{"OBJECTID":72122,"PRIMENAME":"Mathis Place","ELEVTYP_F":0,"ELEVTYP_T":0},"geometry":{"type":"LineString","coordinates":[[-74.0468183925566,40.0575878756853],[-74.0459356251703,40.0574950045678]]}},{"type":"Feature","id":74134,"properties":{"OBJECTID":74134,"PRIMENAME":"East Avenue","ELEVTYP_F":0,"ELEVTYP_T":0},"geometry":{"type":"LineString","coordinates":[[-74.0458484639898,40.0578443897808],[-74.0458536611107,40.0578242867979],[-74.0459356251703,40.0574950045678]]}},{"type":"Feature","id":85102,"properties":{"OBJECTID":85102,"PRIMENAME":"Bay Avenue","ELEVTYP_F":0,"ELEVTYP_T":0},"geometry":{"type":"LineString","coordinates":[[-74.0521551546732,40.0379501119823],[-74.051929340467,40.0387547605597]]}},{"type":"Feature","id":85240,"properties":{"OBJECTID":85240,"PRIMENAME":"Williams Place","ELEVTYP_F":0,"ELEVTYP_T":0},"geometry":{"type":"LineString","coordinates":[[-74.0464098811248,40.0555418042792],[-74.0471841104872,40.0556312825338]]}},{"type":"Feature","id":85785,"properties":{"OBJECTID":85785,"PRIMENAME":"Lyman Street","ELEVTYP_F":0,"ELEVTYP_T":0},"geometry":{"type":"LineString","coordinates":[[-74.0481027746757,40.0506698582045],[-74.0481008118684,40.0506696307789],[-74.0474664170863,40.0505970120308]]}},{"type":"Feature","id":89513,"properties":{"OBJECTID":89513,"PRIMENAME":"Herbert Street","ELEVTYP_F":0,"ELEVTYP_T":0},"geometry":{"type":"LineString","coordinates":[[-74.0537599750313,40.040446679295],[-74.0532715885054,40.0403614521145],[-74.0528347755997,40.0402440066589],[-74.052485342196,40.0401472330483],[-74.0523228225619,40.0401012388435],[-74.052103348682,40.0400503325284],[-74.052088665643,40.0400474484762],[-74.0519210233262,40.0400145084538],[-74.0517134314481,40.0399818315622],[-74.0515897816511,40.0399646064178]]}},{"type":"Feature","id":91887,"properties":{"OBJECTID":91887,"PRIMENAME":"East Avenue","ELEVTYP_F":0,"ELEVTYP_T":0},"geometry":{"type":"LineString","coordinates":[[-74.0462589596174,40.0561958918053],[-74.0462932046098,40.0560583202286],[-74.0464098811248,40.0555418042792]]}},{"type":"Feature","id":92312,"properties":{"OBJECTID":92312,"PRIMENAME":"East Avenue","ELEVTYP_F":0,"ELEVTYP_T":0},"geometry":{"type":"LineString","coordinates":[[-74.0471083919632,40.0522928581697],[-74.0471836505402,40.0519384559895],[-74.0474664170863,40.0505970120308]]}},{"type":"Feature","id":94320,"properties":{"OBJECTID":94320,"PRIMENAME":"Herbert Street","ELEVTYP_F":0,"ELEVTYP_T":0},"geometry":{"type":"LineString","coordinates":[[-74.0515897816511,40.0399646064178],[-74.0509830279848,40.0398692172404]]}},{"type":"Feature","id":94333,"properties":{"OBJECTID":94333,"PRIMENAME":"Albertson Street","ELEVTYP_F":0,"ELEVTYP_T":0},"geometry":{"type":"LineString","coordinates":[[-74.0533698501497,40.0314506369914],[-74.0524650010752,40.0313001605583]]}},{"type":"Feature","id":103623,"properties":{"OBJECTID":103623,"PRIMENAME":"Lyman Street","ELEVTYP_F":0,"ELEVTYP_T":0},"geometry":{"type":"LineString","coordinates":[[-74.0492079853885,40.0507887538456],[-74.0486582717867,40.0507296203408]]}},{"type":"Feature","id":109981,"properties":{"OBJECTID":109981,"PRIMENAME":"Carpenter Lane","ELEVTYP_F":0,"ELEVTYP_T":0},"geometry":{"type":"LineString","coordinates":[[-74.0529281413749,40.0327260934364],[-74.0529269276878,40.0329119761708]]}},{"type":"Feature","id":111490,"properties":{"OBJECTID":111490,"PRIMENAME":"Runyon Lane","ELEVTYP_F":0,"ELEVTYP_T":0},"geometry":{"type":"LineString","coordinates":[[-74.0544496537497,40.0275844393664],[-74.0543315536498,40.0280129449967],[-74.0539009772671,40.029581266611],[-74.0537957828626,40.0299670181206],[-74.05372569061,40.0302240450597],[-74.0533698501497,40.0314506369914]]}},{"type":"Feature","id":117309,"properties":{"OBJECTID":117309,"PRIMENAME":"Old Bridge Street","ELEVTYP_F":0,"ELEVTYP_T":0},"geometry":{"type":"LineString","coordinates":[[-74.051929340467,40.0387547605597],[-74.0527186261708,40.0388899155574]]}},{"type":"Feature","id":121036,"properties":{"OBJECTID":121036,"PRIMENAME":"Lagoon Lane","ELEVTYP_F":0,"ELEVTYP_T":0},"geometry":{"type":"LineString","coordinates":[[-74.0491598542665,40.0581638935506],[-74.0491880545688,40.0579745310181]]}},{"type":"Feature","id":132247,"properties":{"OBJECTID":132247,"PRIMENAME":"Albertson Street","ELEVTYP_F":0,"ELEVTYP_T":0},"geometry":{"type":"LineString","coordinates":[[-74.0538733975864,40.0315343612416],[-74.0533698501497,40.0314506369914]]}},{"type":"Feature","id":167637,"properties":{"OBJECTID":167637,"PRIMENAME":"Barnegat Lane","ELEVTYP_F":0,"ELEVTYP_T":0},"geometry":{"type":"LineString","coordinates":[[-74.0479140231968,40.0561400974339],[-74.0478944264279,40.0562834370697],[-74.0478080080603,40.0569694314095],[-74.0477487841769,40.0574810948057],[-74.0477044944975,40.0579928155262],[-74.047689265356,40.0581485603062],[-74.0476837252279,40.0582051951706],[-74.0476835507881,40.0582390237379]]}},{"type":"Feature","id":173741,"properties":{"OBJECTID":173741,"PRIMENAME":"Bay Avenue","ELEVTYP_F":0,"ELEVTYP_T":0},"geometry":{"type":"LineString","coordinates":[[-74.051929340467,40.0387547605597],[-74.0515897816511,40.0399646064178]]}},{"type":"Feature","id":178965,"properties":{"OBJECTID":178965,"PRIMENAME":"Downer Avenue","ELEVTYP_F":0,"ELEVTYP_T":0},"geometry":{"type":"LineString","coordinates":[[-74.0523753044494,40.0371487591401],[-74.0509118229366,40.0368994481588]]}},{"type":"Feature","id":182691,"properties":{"OBJECTID":182691,"PRIMENAME":"Arnold Street","ELEVTYP_F":0,"ELEVTYP_T":0},"geometry":{"type":"LineString","coordinates":[[-74.0521974533462,40.0357974755144],[-74.0522046940443,40.0358318201572],[-74.0522305429906,40.0358605262718],[-74.0522713782975,40.0358749880762],[-74.0523105375993,40.0358814460776],[-74.0525910099685,40.0359276976573],[-74.0526429888338,40.0359421735348],[-74.0526762843214,40.035968053981]]}},{"type":"Feature","id":188941,"properties":{"OBJECTID":188941,"PRIMENAME":"Mantoloking Road","ELEVTYP_F":0,"ELEVTYP_T":0},"geometry":{"type":"LineString","coordinates":[[-74.0564795746816,40.0405998917562],[-74.0562821554757,40.040612363592],[-74.0559686598105,40.0406221133633],[-74.055620696887,40.0406113932205],[-74.0552179183756,40.040580124746],[-74.0547133195651,40.0405394701458]]}},{"type":"Feature","id":200978,"properties":{"OBJECTID":200978,"PRIMENAME":"Stephens Place","ELEVTYP_F":0,"ELEVTYP_T":0},"geometry":{"type":"LineString","coordinates":[[-74.0471083919632,40.0522928581697],[-74.0477866825109,40.0523745184798]]}},{"type":"Feature","id":226009,"properties":{"OBJECTID":226009,"PRIMENAME":"Barnegat Lane","ELEVTYP_F":0,"ELEVTYP_T":0},"geometry":{"type":"LineString","coordinates":[[-74.0476835507881,40.0582390237379],[-74.0476833395308,40.0582798388616],[-74.0476869913804,40.0583974633232],[-74.0476909697557,40.0584857371708]]}},{"type":"Feature","id":232828,"properties":{"OBJECTID":232828,"PRIMENAME":"Bay Avenue","ELEVTYP_F":0,"ELEVTYP_T":0},"geometry":{"type":"LineString","coordinates":[[-74.0526762843214,40.035968053981],[-74.0526835439317,40.0359995434481],[-74.0526833758652,40.036025266784],[-74.0523753044494,40.0371487591401]]}},{"type":"Feature","id":247199,"properties":{"OBJECTID":247199,"PRIMENAME":"Carpenter Lane","ELEVTYP_F":0,"ELEVTYP_T":0},"geometry":{"type":"LineString","coordinates":[[-74.0529269276878,40.0329119761708],[-74.0529265356707,40.0329720153353],[-74.052922578709,40.0330091719665],[-74.0529148348693,40.0330520514468],[-74.0528615323908,40.0332405884035]]}},{"type":"Feature","id":251280,"properties":{"OBJECTID":251280,"PRIMENAME":"Lyman Street","ELEVTYP_F":0,"ELEVTYP_T":0},"geometry":{"type":"LineString","coordinates":[[-74.0474664170863,40.0505970120308],[-74.0468692847875,40.0505404571729]]}},{"type":"Feature","id":270378,"properties":{"OBJECTID":270378,"PRIMENAME":"Mantoloking Road","ELEVTYP_F":0,"ELEVTYP_T":0},"geometry":{"type":"LineString","coordinates":[[-74.0643742898187,40.0422448130562],[-74.0629211603575,40.0418664423428],[-74.0614784030474,40.0414883934938],[-74.0601691856311,40.0411533871875],[-74.0594132669515,40.040955322142],[-74.0588140192974,40.0408004554778],[-74.0582931448261,40.0406671067773],[-74.058002039246,40.0406001655008],[-74.0577193765231,40.0405631057904],[-74.0574609932389,40.0405480413239],[-74.0571251419176,40.0405530152983],[-74.0566323655856,40.0405902382476],[-74.0564795746816,40.0405998917562]]}},{"type":"Feature","id":270564,"properties":{"OBJECTID":270564,"PRIMENAME":"Lyman Street","ELEVTYP_F":0,"ELEVTYP_T":0},"geometry":{"type":"LineString","coordinates":[[-74.0486582717867,40.0507296203408],[-74.0481027746757,40.0506698582045]]}},{"type":"Feature","id":276138,"properties":{"OBJECTID":276138,"PRIMENAME":"Squan Beach Drive","ELEVTYP_F":0,"ELEVTYP_T":0},"geometry":{"type":"LineString","coordinates":[[-74.0557758287816,40.0272264870163],[-74.0580499475123,40.0250292711013],[-74.0590919519897,40.0240214993497],[-74.0591625094663,40.0239554401076],[-74.0592437006479,40.0239018302352],[-74.0593629828299,40.0238110562813],[-74.0595199096668,40.02372459735],[-74.0596877183357,40.023634007501],[-74.0598499923109,40.0235599783056],[-74.0599960105754,40.0234983510721],[-74.0603635060509,40.0233794994586],[-74.0616009348219,40.0230109851656],[-74.0634003855393,40.0224663211922],[-74.0634597848184,40.0224582540052],[-74.0635190686954,40.0224625953255],[-74.063567490401,40.022479386644],[-74.0636266508169,40.0225086282538],[-74.0636695218416,40.0225502444943],[-74.0637069750322,40.0225960132737],[-74.064170765154,40.0235230613488],[-74.0642182490862,40.0236179694461]]}},{"type":"Feature","id":276838,"properties":{"OBJECTID":276838,"PRIMENAME":"East Avenue","ELEVTYP_F":0,"ELEVTYP_T":0},"geometry":{"type":"LineString","coordinates":[[-74.0457781303602,40.0581164692772],[-74.0458484639898,40.0578443897808]]}},{"type":"Feature","id":278600,"properties":{"OBJECTID":278600,"PRIMENAME":"Bay Avenue","ELEVTYP_F":0,"ELEVTYP_T":0},"geometry":{"type":"LineString","coordinates":[[-74.0523753044494,40.0371487591401],[-74.0521726365414,40.0378878169202],[-74.0521551546732,40.0379501119823]]}},{"type":"Feature","id":288615,"properties":{"OBJECTID":288615,"PRIMENAME":"FR RT 35 NB to RT 35 SB","ELEVTYP_F":0,"ELEVTYP_T":0},"geometry":{"type":"LineString","coordinates":[[-74.0538162760881,40.0264337903019],[-74.0538167865714,40.0264471263724],[-74.0538185166309,40.0264604017565],[-74.053821457688,40.0264735506209],[-74.0538255951583,40.0264865077597],[-74.0538309085247,40.0264992089174],[-74.0538373714384,40.0265115911084],[-74.0538449518501,40.0265235929283],[-74.0538536121684,40.0265351548595],[-74.053859853153,40.0265410393424],[-74.0538668434679,40.026546402876],[-74.0538745099641,40.0265511893344],[-74.0538827724168,40.0265553486303],[-74.0538915443646,40.0265588372394],[-74.0539007340149,40.0265616186555],[-74.0539102452037,40.026563663773],[-74.0539199784026,40.0265649511908],[-74.0539298317596,40.0265654674371],[-74.0539397021658,40.0265652071097],[-74.0539494863334,40.0265641729326],[-74.0539590818773,40.0265623757279],[-74.0539683883862,40.0265598343022],[-74.0539773084735,40.0265565752499],[-74.053985748796,40.0265526326749],[-74.0539936210314,40.0265480478339],[-74.0540828666973,40.0264789520141],[-74.0541711513186,40.0264091303955]]}},{"type":"Feature","id":290994,"properties":{"OBJECTID":290994,"PRIMENAME":"Yacht Club","ELEVTYP_F":0,"ELEVTYP_T":0},"geometry":{"type":"LineString","coordinates":[[-74.0521551546732,40.0379501119823],[-74.0529244230984,40.0380741213205]]}},{"type":"Feature","id":299122,"properties":{"OBJECTID":299122,"PRIMENAME":"Bay Avenue","ELEVTYP_F":0,"ELEVTYP_T":0},"geometry":{"type":"LineString","coordinates":[[-74.0525424618732,40.0342460169992],[-74.0525764253666,40.0342617077384],[-74.0525979856867,40.0342862314809],[-74.0525977801078,40.0343176921385],[-74.0522014472002,40.0357603190693],[-74.0521974533462,40.0357974755144]]}},{"type":"Feature","id":300167,"properties":{"OBJECTID":300167,"PRIMENAME":"East Avenue","ELEVTYP_F":0,"ELEVTYP_T":0},"geometry":{"type":"LineString","coordinates":[[-74.0467641325775,40.0539140022943],[-74.0467896210758,40.0537928961245],[-74.0471083919632,40.0522928581697]]}},{"type":"Feature","id":307926,"properties":{"OBJECTID":307926,"PRIMENAME":"Newman Place","ELEVTYP_F":0,"ELEVTYP_T":0},"geometry":{"type":"LineString","coordinates":[[-74.0474895693659,40.0539997190616],[-74.0467641325775,40.0539140022943]]}},{"type":"Feature","id":320982,"properties":{"OBJECTID":320982,"PRIMENAME":"Princeton Avenue","ELEVTYP_F":0,"ELEVTYP_T":0},"geometry":{"type":"LineString","coordinates":[[-74.0516851992541,40.0340989850777],[-74.0525016276473,40.0342315291717],[-74.0525424618732,40.0342460169992]]}},{"type":"Feature","id":321710,"properties":{"OBJECTID":321710,"PRIMENAME":"East Avenue","ELEVTYP_F":0,"ELEVTYP_T":0},"geometry":{"type":"LineString","coordinates":[[-74.0460974952938,40.0568446938992],[-74.0462589596174,40.0561958918053]]}},{"type":"Feature","id":329502,"properties":{"OBJECTID":329502,"PRIMENAME":"Herbert Street","ELEVTYP_F":0,"ELEVTYP_T":0},"geometry":{"type":"LineString","coordinates":[[-74.0509830279848,40.0398692172404],[-74.0506664519464,40.0398109424551],[-74.0501285342651,40.0397253973577]]}},{"type":"Feature","id":332659,"properties":{"OBJECTID":332659,"PRIMENAME":"Bergen Avenue","ELEVTYP_F":0,"ELEVTYP_T":0},"geometry":{"type":"LineString","coordinates":[[-74.0479140231968,40.0561400974339],[-74.047388090399,40.0560493425579],[-74.0471098862286,40.0559961212934]]}},{"type":"Feature","id":332884,"properties":{"OBJECTID":332884,"PRIMENAME":"Herbert Street","ELEVTYP_F":0,"ELEVTYP_T":0},"geometry":{"type":"LineString","coordinates":[[-74.0547133195651,40.0405394701458],[-74.0543208342078,40.0405078472061],[-74.0537757606118,40.0404494331772],[-74.0537599750313,40.040446679295]]}},{"type":"Feature","id":335436,"properties":{"OBJECTID":335436,"PRIMENAME":"East Avenue","ELEVTYP_F":0,"ELEVTYP_T":0},"geometry":{"type":"LineString","coordinates":[[-74.0459356251703,40.0574950045678],[-74.0460974952938,40.0568446938992]]}},{"type":"Feature","id":338512,"properties":{"OBJECTID":338512,"PRIMENAME":"Downer Avenue","ELEVTYP_F":0,"ELEVTYP_T":0},"geometry":{"type":"LineString","coordinates":[[-74.0509118229366,40.0368994481588],[-74.0502285162238,40.0367830584285]]}},{"type":"Feature","id":339884,"properties":{"OBJECTID":339884,"PRIMENAME":"Barnegat Lane","ELEVTYP_F":0,"ELEVTYP_T":0},"geometry":{"type":"LineString","coordinates":[[-74.0486582717867,40.0507296203408],[-74.0484495082694,40.0522448335235],[-74.048167873941,40.054319891627],[-74.0479882739686,40.0555974706648],[-74.0479140231968,40.0561400974339]]}},{"type":"Feature","id":349540,"properties":{"OBJECTID":349540,"PRIMENAME":"Ocean Avenue","ELEVTYP_F":0,"ELEVTYP_T":0},"geometry":{"type":"LineString","coordinates":[[-74.0524650010752,40.0313001605583],[-74.0523099865591,40.0318766603421],[-74.0520536041619,40.0327713367157]]}},{"type":"Feature","id":352323,"properties":{"OBJECTID":352323,"PRIMENAME":"Ocean Avenue","ELEVTYP_F":0,"ELEVTYP_T":0},"geometry":{"type":"LineString","coordinates":[[-74.0470594817174,40.0562813558772],[-74.0469389388104,40.0569346298499]]}},{"type":"Feature","id":352865,"properties":{"OBJECTID":352865,"PRIMENAME":"Ocean Avenue","ELEVTYP_F":0,"ELEVTYP_T":0},"geometry":{"type":"LineString","coordinates":[[-74.0468183925566,40.0575878756853],[-74.0467381937357,40.0579857174364],[-74.0467289390987,40.0580337396776]]}},{"type":"Feature","id":353053,"properties":{"OBJECTID":353053,"PRIMENAME":"Ocean Avenue","ELEVTYP_F":0,"ELEVTYP_T":0},"geometry":{"type":"LineString","coordinates":[[-74.0534577221437,40.0277237633293],[-74.0532673586513,40.0283950615315],[-74.0530338890924,40.029252080612],[-74.0528101893701,40.0300447862307],[-74.0524650010752,40.0313001605583]]}},{"type":"Feature","id":353451,"properties":{"OBJECTID":353451,"PRIMENAME":"Ocean Avenue","ELEVTYP_F":0,"ELEVTYP_T":0},"geometry":{"type":"LineString","coordinates":[[-74.0520536041619,40.0327713367157],[-74.0518387005064,40.0335370592462],[-74.0516851992541,40.0340989850777]]}},{"type":"Feature","id":353911,"properties":{"OBJECTID":353911,"PRIMENAME":"Ocean Avenue","ELEVTYP_F":0,"ELEVTYP_T":0},"geometry":{"type":"LineString","coordinates":[[-74.0471841104872,40.0556312825338],[-74.0471098862286,40.0559961212934]]}},{"type":"Feature","id":364840,"properties":{"OBJECTID":364840,"PRIMENAME":"Curtis Point Drive","ELEVTYP_F":0,"ELEVTYP_T":0},"geometry":{"type":"LineString","coordinates":[[-74.0550348677523,40.0263347295429],[-74.0548718675055,40.0268757870644],[-74.0548681157689,40.0269255733231],[-74.0548678396794,40.0269680511324],[-74.054867826174,40.0269701289981],[-74.0548846223993,40.0270121418728],[-74.0549253234953,40.0270411242458],[-74.0549578636466,40.0270512767281],[-74.0549933935853,40.0270623602986],[-74.0554631142232,40.0271608921808],[-74.0557758287816,40.0272264870163]]}},{"type":"Feature","id":367447,"properties":{"OBJECTID":367447,"PRIMENAME":"Curtis Point Drive","ELEVTYP_F":0,"ELEVTYP_T":0},"geometry":{"type":"LineString","coordinates":[[-74.0557758287816,40.0272264870163],[-74.056943098726,40.0274665882719],[-74.0570566124017,40.0274961779218],[-74.0571663988675,40.0275111474471],[-74.0572383962038,40.0275104615131],[-74.057301656555,40.0274971143263],[-74.0573112052271,40.0274925950583],[-74.0573586829609,40.0274701255915],[-74.057418364054,40.0274246708845],[-74.0592918694323,40.0256394047239],[-74.0601384998648,40.0248257436659],[-74.0602796083268,40.0246894518062],[-74.060350023954,40.0246399453056],[-74.0604204490103,40.024594612649],[-74.0605015685445,40.0245576114688],[-74.0606313320635,40.0245083298651],[-74.0607718792931,40.024459116911],[-74.0629819345456,40.0238123237245]]}},{"type":"Feature","id":367490,"properties":{"OBJECTID":367490,"PRIMENAME":"West Central Avenue","ELEVTYP_F":0,"ELEVTYP_T":0},"geometry":{"type":"LineString","coordinates":[[-74.0541711513186,40.0264091303955],[-74.0540454367449,40.0265525282856]]}},{"type":"Feature","id":370810,"properties":{"OBJECTID":370810,"PRIMENAME":"Main Avenue","ELEVTYP_F":0,"ELEVTYP_T":0},"geometry":{"type":"LineString","coordinates":[[-74.0467289390987,40.0580337396776],[-74.0466948300005,40.0582107470486],[-74.0466469404542,40.0584178864126],[-74.0465895840419,40.0586464576932],[-74.0464544652006,40.059184537867]]}},{"type":"Feature","id":371557,"properties":{"OBJECTID":371557,"PRIMENAME":"Ocean Avenue","ELEVTYP_F":0,"ELEVTYP_T":0},"geometry":{"type":"LineString","coordinates":[[-74.0471098862286,40.0559961212934],[-74.0470594817174,40.0562813558772]]}},{"type":"Feature","id":372824,"properties":{"OBJECTID":372824,"PRIMENAME":"Ocean Avenue","ELEVTYP_F":0,"ELEVTYP_T":0},"geometry":{"type":"LineString","coordinates":[[-74.0537765332521,40.0268811146423],[-74.053770671399,40.026889066878],[-74.0537247170785,40.0269703439193],[-74.0537052621442,40.02701658665],[-74.0536888430041,40.0270556138434],[-74.0535911927599,40.0273267522585],[-74.0534577221437,40.0277237633293]]}},{"type":"Feature","id":372970,"properties":{"OBJECTID":372970,"PRIMENAME":"Ocean Avenue","ELEVTYP_F":0,"ELEVTYP_T":0},"geometry":{"type":"LineString","coordinates":[[-74.0469389388104,40.0569346298499],[-74.0468183925566,40.0575878756853]]}},{"type":"Feature","id":377951,"properties":{"OBJECTID":377951,"PRIMENAME":"Ocean Avenue","ELEVTYP_F":0,"ELEVTYP_T":0},"geometry":{"type":"LineString","coordinates":[[-74.0474895693659,40.0539997190616],[-74.0471841104872,40.0556312825338]]}},{"type":"Feature","id":378226,"properties":{"OBJECTID":378226,"PRIMENAME":"Ocean Avenue","ELEVTYP_F":0,"ELEVTYP_T":0},"geometry":{"type":"LineString","coordinates":[[-74.0516851992541,40.0340989850777],[-74.0515909390351,40.0344440667205],[-74.0513622218491,40.0352832272767],[-74.0509954758579,40.0366044284401],[-74.0509118229366,40.0368994481588]]}},{"type":"Feature","id":382554,"properties":{"OBJECTID":382554,"PRIMENAME":"Ocean Avenue","ELEVTYP_F":0,"ELEVTYP_T":0},"geometry":{"type":"LineString","coordinates":[[-74.0536458603372,40.0270050252363],[-74.0536151541871,40.0271131189945],[-74.0534577221437,40.0277237633293]]}},{"type":"Feature","id":382801,"properties":{"OBJECTID":382801,"PRIMENAME":"Ocean Avenue","ELEVTYP_F":0,"ELEVTYP_T":0},"geometry":{"type":"LineString","coordinates":[[-74.0538162760881,40.0264337903019],[-74.053743646044,40.0266631858385],[-74.0536864616937,40.0268624375971]]}},{"type":"Feature","id":384838,"properties":{"OBJECTID":384838,"PRIMENAME":"Ocean Avenue","ELEVTYP_F":0,"ELEVTYP_T":0},"geometry":{"type":"LineString","coordinates":[[-74.0477866825109,40.0523745184798],[-74.0474895693659,40.0539997190616]]}},{"type":"Feature","id":389937,"properties":{"OBJECTID":389937,"PRIMENAME":"Ocean Avenue","ELEVTYP_F":0,"ELEVTYP_T":0},"geometry":{"type":"LineString","coordinates":[[-74.0536864616937,40.0268624375971],[-74.0536770328128,40.0268952948885],[-74.0536458603372,40.0270050252363]]}},{"type":"Feature","id":394773,"properties":{"OBJECTID":394773,"PRIMENAME":"Ocean Avenue","ELEVTYP_F":0,"ELEVTYP_T":0},"geometry":{"type":"LineString","coordinates":[[-74.0540454367449,40.0265525282856],[-74.0540046806778,40.026599016048],[-74.0539284713236,40.0266763064138],[-74.053841936809,40.0267923762963],[-74.0537765332521,40.0268811146423]]}},{"type":"Feature","id":399121,"properties":{"OBJECTID":399121,"PRIMENAME":"Ocean Avenue","ELEVTYP_F":0,"ELEVTYP_T":0},"geometry":{"type":"LineString","coordinates":[[-74.0509118229366,40.0368994481588],[-74.0506289032527,40.0378970225785],[-74.0504050770448,40.0387004833475],[-74.0502288866866,40.039325351404],[-74.0501478371554,40.0396252947419],[-74.0501285342651,40.0397253973577]]}},{"type":"Feature","id":400017,"properties":{"OBJECTID":400017,"PRIMENAME":"Ocean Avenue","ELEVTYP_F":0,"ELEVTYP_T":0},"geometry":{"type":"LineString","coordinates":[[-74.0481027746757,40.0506698582045],[-74.0480499322699,40.0509631001917],[-74.0477866825109,40.0523745184798]]}},{"type":"Feature","id":401780,"properties":{"OBJECTID":401780,"PRIMENAME":"Ocean Avenue","ELEVTYP_F":0,"ELEVTYP_T":0},"geometry":{"type":"LineString","coordinates":[[-74.0501285342651,40.0397253973577],[-74.0500996895692,40.0398753454377],[-74.0500370356956,40.0402075348633],[-74.0498488475954,40.0412434976052],[-74.0497475287024,40.0418007364933],[-74.0496510157157,40.0423329562936],[-74.0496451738734,40.0423641292874],[-74.0494340843309,40.0434903149779],[-74.0493039898601,40.0441797116162],[-74.0491785017593,40.0448691259449],[-74.0491411387118,40.0450679907515],[-74.0490404270727,40.0456040357694],[-74.0489134091361,40.046280073717],[-74.0486769105398,40.0475838993224],[-74.0484262712174,40.0489127075206],[-74.0483104892209,40.0495414033957],[-74.0481561364553,40.0503736801282],[-74.0481027746757,40.0506698582045]]}}]}
